$$SOE
2461302.500000000, A.D. 2026-Sep-19 00:00:00.0000, -6.453033400108045E+07, 2.981308191377952E+08, -8.378934181608394E+06,
2461309.500000000, A.D. 2026-Sep-26 00:00:00.0000, -7.757088583634748E+07, 2.969120479825593E+08, -7.625510696777061E+06,
2461316.500000000, A.D. 2026-Oct-03 00:00:00.0000, -9.048144149363883E+07, 2.951951005220943E+08, -6.859283076810747E+06,
2461323.500000000, A.D. 2026-Oct-10 00:00:00.0000, -1.032430577260073E+08, 2.929917223466387E+08, -6.081742941904038E+06,
2461330.500000000, A.D. 2026-Oct-17 00:00:00.0000, -1.158377786282211E+08, 2.903142622517421E+08, -5.294352570351169E+06,
2461337.500000000, A.D. 2026-Oct-24 00:00:00.0000, -1.282486329468359E+08, 2.871755923554528E+08, -4.498541870972157E+06,
2461344.500000000, A.D. 2026-Oct-31 00:00:00.0000, -1.404596256337354E+08, 2.835890323123134E+08, -3.695705853402361E+06,
2461351.500000000, A.D. 2026-Nov-07 00:00:00.0000, -1.524557240249343E+08, 2.795682779268656E+08, -2.887202591216564E+06,
2461358.500000000, A.D. 2026-Nov-14 00:00:00.0000, -1.642228391363551E+08, 2.751273351940091E+08, -2.074351591814801E+06,
2461365.500000000, A.D. 2026-Nov-21 00:00:00.0000, -1.757478045460732E+08, 2.702804605148717E+08, -1.258432318690568E+06,
2461372.500000000, A.D. 2026-Nov-28 00:00:00.0000, -1.870183544693130E+08, 2.650421040818834E+08, -4.406829875806272E+05,
2461379.500000000, A.D. 2026-Dec-05 00:00:00.0000, -1.980230979636628E+08, 2.594268557072875E+08, 3.777000123317093E+05,
2461386.500000000, A.D. 2026-Dec-12 00:00:00.0000, -2.087514896236799E+08, 2.534493960952350E+08, 1.195562344062403E+06,
2461393.500000000, A.D. 2026-Dec-19 00:00:00.0000, -2.191937991231466E+08, 2.471244534309823E+08, 2.011791798957631E+06,
2461400.500000000, A.D. 2026-Dec-26 00:00:00.0000, -2.293410801569357E+08, 2.404667642483703E+08, 2.825318195233762E+06,
2461407.500000000, A.D. 2027-Jan-02 00:00:00.0000, -2.391851388680117E+08, 2.334910381815479E+08, 3.635113086935252E+06,
2461414.500000000, A.D. 2027-Jan-09 00:00:00.0000, -2.487185019644798E+08, 2.262119263974344E+08, 4.440189301302284E+06,
2461421.500000000, A.D. 2027-Jan-16 00:00:00.0000, -2.579343847807538E+08, 2.186439934855717E+08, 5.239600326763079E+06,
2461428.500000000, A.D. 2027-Jan-23 00:00:00.0000, -2.668266594942359E+08, 2.108016925372538E+08, 6.032439566250354E+06,
2461435.500000000, A.D. 2027-Jan-30 00:00:00.0000, -2.753898235289415E+08, 2.026993431454049E+08, 6.817839454575971E+06,
2461442.500000000, A.D. 2027-Feb-06 00:00:00.0000, -2.836189678989219E+08, 1.943511124478419E+08, 7.594970446716130E+06,
2461449.500000000, A.D. 2027-Feb-13 00:00:00.0000, -2.915097460930364E+08, 1.857710002153586E+08, 8.363040035192028E+06,
2461456.500000000, A.D. 2027-Feb-20 00:00:00.0000, -2.990583459800427E+08, 1.769728269777190E+08, 9.121291962994151E+06,
2461463.500000000, A.D. 2027-Feb-27 00:00:00.0000, -3.062614634280714E+08, 1.679702217659871E+08, 9.869005254016101E+06,
2461470.500000000, A.D. 2027-Mar-06 00:00:00.0000, -3.131162746833767E+08, 1.587766111880845E+08, 1.060549295302596E+07,
2461477.500000000, A.D. 2027-Mar-13 00:00:00.0000, -3.196204091634762E+08, 1.494052116876227E+08, 1.133010089954588E+07,
2461484.500000000, A.D. 2027-Mar-20 00:00:00.0000, -3.257719238424742E+08, 1.398690239735637E+08, 1.204220657960776E+07,
2461491.500000000, A.D. 2027-Mar-27 00:00:00.0000, -3.315692790556124E+08, 1.301808289105060E+08, 1.274121800000584E+07,
2461498.500000000, A.D. 2027-Apr-03 00:00:00.0000, -3.370113155324252E+08, 1.203531846701304E+08, 1.342657256974068E+07,
2461505.500000000, A.D. 2027-Apr-10 00:00:00.0000, -3.420972325979384E+08, 1.103984250247205E+08, 1.409773599101587E+07,
2461512.500000000, A.D. 2027-Apr-17 00:00:00.0000, -3.468265675113106E+08, 1.003286586361289E+08, 1.475420116162868E+07,
2461519.500000000, A.D. 2027-Apr-24 00:00:00.0000, -3.511991758467721E+08, 9.015576915523350E+07, 1.539548708054445E+07,
2461526.500000000, A.D. 2027-May-01 00:00:00.0000, -3.552152125954158E+08, 7.989141604620454E+07, 1.602113773483244E+07,
2461533.500000000, A.D. 2027-May-08 00:00:00.0000, -3.588751136538464E+08, 6.954703677934168E+07, 1.663072100366710E+07,
2461540.500000000, A.D. 2027-May-15 00:00:00.0000, -3.621795791672099E+08, 5.913385124926373E+07, 1.722382779671910E+07,
2461547.500000000, A.D. 2027-May-22 00:00:00.0000, -3.651295602621287E+08, 4.866286573910491E+07, 1.780007136021653E+07,
2461554.500000000, A.D. 2027-May-29 00:00:00.0000, -3.677262457833788E+08, 3.814487488615854E+07, 1.835908632445275E+07,
2461561.500000000, A.D. 2027-Jun-05 00:00:00.0000, -3.699710481104699E+08, 2.759046471140493E+07, 1.890052766883245E+07,
2461568.500000000, A.D. 2027-Jun-12 00:00:00.0000, -3.718655900222912E+08, 1.701001707714897E+07, 1.942406982444424E+07,
2461575.500000000, A.D. 2027-Jun-19 00:00:00.0000, -3.734116929079314E+08, 6.413714577119916E+06, 1.992940586839961E+07,
2461582.500000000, A.D. 2027-Jun-26 00:00:00.0000, -3.746113660116448E+08, -4.188454453758463E+06, 2.041624676335410E+07,
2461589.500000000, A.D. 2027-Jul-03 00:00:00.0000, -3.754667965448846E+08, -1.478669084753171E+07, 2.088432063108218E+07,
2461596.500000000, A.D. 2027-Jul-10 00:00:00.0000, -3.759803405934049E+08, -2.537137946257373E+07, 2.133337205753714E+07,
2461603.500000000, A.D. 2027-Jul-17 00:00:00.0000, -3.761545147490488E+08, -3.593308407096738E+07, 2.176316142282654E+07,
2461610.500000000, A.D. 2027-Jul-24 00:00:00.0000, -3.759919882770224E+08, -4.646254237065744E+07, 2.217346423645005E+07,
2461617.500000000, A.D. 2027-Jul-31 00:00:00.0000, -3.754955753754967E+08, -5.695066091707208E+07, 2.256407045904027E+07,
2461624.500000000, A.D. 2027-Aug-07 00:00:00.0000, -3.746682276972138E+08, -6.738850884959328E+07, 2.293478392270837E+07,
2461631.500000000, A.D. 2027-Aug-14 00:00:00.0000, -3.735130294049092E+08, -7.776731069148862E+07, 2.328542203971464E+07,
2461638.500000000, A.D. 2027-Aug-21 00:00:00.0000, -3.720331941178023E+08, -8.807844161088145E+07, 2.361581546726786E+07,
2461645.500000000, A.D. 2027-Aug-28 00:00:00.0000, -3.702320602961199E+08, -9.831342395789020E+07, 2.392580751185931E+07,
2461652.500000000, A.D. 2027-Sep-04 00:00:00.0000, -3.681130862195939E+08, -1.084639225894611E+08, 2.421525358551376E+07,
2461659.500000000, A.D. 2027-Sep-11 00:00:00.0000, -3.656798459290304E+08, -1.185217396566165E+08, 2.448402078689641E+07,
2461666.500000000, A.D. 2027-Sep-18 00:00:00.0000, -3.629360259744612E+08, -1.284788095168721E+08, 2.473198754076503E+07,
2461673.500000000, A.D. 2027-Sep-25 00:00:00.0000, -3.598854227184889E+08, -1.383271938594269E+08, 2.495904326730360E+07,
2461680.500000000, A.D. 2027-Oct-02 00:00:00.0000, -3.565319400960749E+08, -1.480590770253050E+08, 2.516508807545936E+07,
2461687.500000000, A.D. 2027-Oct-09 00:00:00.0000, -3.528795877865198E+08, -1.576667615391462E+08, 2.535003247663729E+07,
2461694.500000000, A.D. 2027-Oct-16 00:00:00.0000, -3.489324797181936E+08, -1.671426639208996E+08, 2.551379710765913E+07,
2461701.500000000, A.D. 2027-Oct-23 00:00:00.0000, -3.446948326348739E+08, -1.764793107943808E+08, 2.565631243835376E+07,
2461708.500000000, A.D. 2027-Oct-30 00:00:00.0000, -3.401709643390382E+08, -1.856693346899405E+08, 2.577751847915307E+07,
2461715.500000000, A.D. 2027-Nov-06 00:00:00.0000, -3.353652927638533E+08, -1.947054684182483E+08, 2.587736468728548E+07,
2461722.500000000, A.D. 2027-Nov-13 00:00:00.0000, -3.302823378464185E+08, -2.035805400972318E+08, 2.595581008343480E+07,
2461729.500000000, A.D. 2027-Nov-20 00:00:00.0000, -3.249267232899211E+08, -2.122874710257956E+08, 2.601282313375670E+07,
2461736.500000000, A.D. 2027-Nov-27 00:00:00.0000, -3.193031765883724E+08, -2.208192734464952E+08, 2.604838149120455E+07,
2461743.500000000, A.D. 2027-Dec-04 00:00:00.0000, -3.134165293271285E+08, -2.291690472880865E+08, 2.606247185633987E+07,
2461750.500000000, A.D. 2027-Dec-11 00:00:00.0000, -3.072717182985651E+08, -2.373299768578053E+08, 2.605508992892928E+07,
2461757.500000000, A.D. 2027-Dec-18 00:00:00.0000, -3.008737871485139E+08, -2.452953278308522E+08, 2.602624039701447E+07,
2461764.500000000, A.D. 2027-Dec-25 00:00:00.0000, -2.942278883949569E+08, -2.530584445487759E+08, 2.597593694932178E+07,
2461771.500000000, A.D. 2028-Jan-01 00:00:00.0000, -2.873392857726029E+08, -2.606127476212428E+08, 2.590420230867882E+07,
$$EOE